{"type": "FeatureCollection", "features": [ {"type": "Feature", "properties": {"norad_id": 34327, "name": "COSMOS 2251 DEB", "group": "cosmos-2251-debris", "lat": 52.222044829388615, "lon": -40.024707736025654, "alt_km": 614.4275303738686, "timestamp": "2025-12-17T19:34:08.431747+00:00", "meta": {"OBJECT_NAME": "COSMOS 2251 DEB", "OBJECT_ID": "1993-036NZ", "EPOCH": "2025-12-16T22:35:46.744800", "MEAN_MOTION": 14.89276244, "ECCENTRICITY": 0.0033101, "INCLINATION": 73.9931, "RA_OF_ASC_NODE": 163.4649, "ARG_OF_PERICENTER": 338.9555, "MEAN_ANOMALY": 142.2894, "EPHEMERIS_TYPE": 0, "CLASSIFICATION_TYPE": "U", "NORAD_CAT_ID": 34327, "ELEMENT_SET_NO": 999, "REV_AT_EPOCH": 89570, "BSTAR": 0.00096093429, "MEAN_MOTION_DOT": 9.171e-05, "MEAN_MOTION_DDOT": 0}, "tle": {"line1": "1 34327U 93036NZ  25350.94151325  .00009171  00000+0  96093-3 0  9992", "line2": "2 34327  73.9931 163.4649 0033101 338.9555 142.2894 14.89276244895708"}}, "geometry": {"type": "Point", "coordinates": [-40.024707736025654, 52.222044829388615]}}, {"type": "Feature", "properties": {"norad_id": 34340, "name": "COSMOS 2251 DEB", "group": "cosmos-2251-debris", "lat": 70.73531220396424, "lon": -5.735775426481871, "alt_km": 781.9000056175137, "timestamp": "2025-12-17T19:34:08.431757+00:00", "meta": {"OBJECT_NAME": "COSMOS 2251 DEB", "OBJECT_ID": "1993-036PN", "EPOCH": "2025-12-17T07:36:01.855296", "MEAN_MOTION": 13.79589508, "ECCENTRICITY": 0.02831932, "INCLINATION": 74.0787, "RA_OF_ASC_NODE": 300.3424, "ARG_OF_PERICENTER": 47.0471, "MEAN_ANOMALY": 74.4682, "EPHEMERIS_TYPE": 0, "CLASSIFICATION_TYPE": "U", "NORAD_CAT_ID": 34340, "ELEMENT_SET_NO": 999, "REV_AT_EPOCH": 84331, "BSTAR": 0.0013839478, "MEAN_MOTION_DOT": 1.907e-05, "MEAN_MOTION_DDOT": 0}, "tle": {"line1": "1 34340U 93036PN  25351.31668814  .00001907  00000+0  13839-2 0  9990", "line2": "2 34340  74.0787 300.3424 0283193  47.0471  74.4682 13.79589508843319"}}, "geometry": {"type": "Point", "coordinates": [-5.735775426481871, 70.73531220396424]}}, {"type": "Feature", "properties": {"norad_id": 34343, "name": "COSMOS 2251 DEB", "group": "cosmos-2251-debris", "lat": -8.130114571156248, "lon": 77.36576141263595, "alt_km": 649.5091262722353, "timestamp": "2025-12-17T19:34:08.431767+00:00", "meta": {"OBJECT_NAME": "COSMOS 2251 DEB", "OBJECT_ID": "1993-036PR", "EPOCH": "2025-12-17T08:26:54.818304", "MEAN_MOTION": 14.69514241, "ECCENTRICITY": 0.00237753, "INCLINATION": 74.0204, "RA_OF_ASC_NODE": 80.61, "ARG_OF_PERICENTER": 353.8037, "MEAN_ANOMALY": 67.6219, "EPHEMERIS_TYPE": 0, "CLASSIFICATION_TYPE": "U", "NORAD_CAT_ID": 34343, "ELEMENT_SET_NO": 999, "REV_AT_EPOCH": 88798, "BSTAR": 0.00099973529, "MEAN_MOTION_DOT": 5.928e-05, "MEAN_MOTION_DDOT": 0}, "tle": {"line1": "1 34343U 93036PR  25351.35202336  .00005928  00000+0  99974-3 0  9992", "line2": "2 34343  74.0204  80.6100 0023775 353.8037  67.6219 14.69514241887982"}}, "geometry": {"type": "Point", "coordinates": [77.36576141263595, -8.130114571156248]}}, {"type": "Feature", "properties": {"norad_id": 34344, "name": "COSMOS 2251 DEB", "group": "cosmos-2251-debris", "lat": -21.602511830492958, "lon": -72.17953846094427, "alt_km": 824.8768203991485, "timestamp": "2025-12-17T19:34:08.431777+00:00", "meta": {"OBJECT_NAME": "COSMOS 2251 DEB", "OBJECT_ID": "1993-036PS", "EPOCH": "2025-12-16T17:46:09.359904", "MEAN_MOTION": 14.16440188, "ECCENTRICITY": 0.01560961, "INCLINATION": 73.9781, "RA_OF_ASC_NODE": 103.2054, "ARG_OF_PERICENTER": 286.5462, "MEAN_ANOMALY": 198.2087, "EPHEMERIS_TYPE": 0, "CLASSIFICATION_TYPE": "U", "NORAD_CAT_ID": 34344, "ELEMENT_SET_NO": 999, "REV_AT_EPOCH": 86153, "BSTAR": 0.0015601329, "MEAN_MOTION_DOT": 3.469e-05, "MEAN_MOTION_DDOT": 0}, "tle": {"line1": "1 34344U 93036PS  25350.74038611  .00003469  00000+0  15601-2 0  9990", "line2": "2 34344  73.9781 103.2054 0156096 286.5462 198.2087 14.16440188861535"}}, "geometry": {"type": "Point", "coordinates": [-72.17953846094427, -21.602511830492958]}}, {"type": "Feature", "properties": {"norad_id": 34346, "name": "COSMOS 2251 DEB", "group": "cosmos-2251-debris", "lat": 8.453697061464021, "lon": -54.116029096560666, "alt_km": 950.2978218347444, "timestamp": "2025-12-17T19:34:08.431787+00:00", "meta": {"OBJECT_NAME": "COSMOS 2251 DEB", "OBJECT_ID": "1993-036PU", "EPOCH": "2025-12-17T08:05:23.414784", "MEAN_MOTION": 13.99706599, "ECCENTRICITY": 0.0206173, "INCLINATION": 73.9949, "RA_OF_ASC_NODE": 304.2687, "ARG_OF_PERICENTER": 122.0802, "MEAN_ANOMALY": 359.8399, "EPHEMERIS_TYPE": 0, "CLASSIFICATION_TYPE": "U", "NORAD_CAT_ID": 34346, "ELEMENT_SET_NO": 999, "REV_AT_EPOCH": 85474, "BSTAR": 0.0007057314, "MEAN_MOTION_DOT": 1.218e-05, "MEAN_MOTION_DDOT": 0}, "tle": {"line1": "1 34346U 93036PU  25351.33707656  .00001218  00000+0  70573-3 0  9990", "line2": "2 34346  73.9949 304.2687 0206173 122.0802 359.8399 13.99706599854749"}}, "geometry": {"type": "Point", "coordinates": [-54.116029096560666, 8.453697061464021]}}, {"type": "Feature", "properties": {"norad_id": 34383, "name": "COSMOS 2251 DEB", "group": "cosmos-2251-debris", "lat": 45.83889269624005, "lon": -55.61095468096761, "alt_km": 531.7665334949634, "timestamp": "2025-12-17T19:34:08.431797+00:00", "meta": {"OBJECT_NAME": "COSMOS 2251 DEB", "OBJECT_ID": "1993-036PY", "EPOCH": "2025-12-16T21:19:57.305280", "MEAN_MOTION": 15.09361567, "ECCENTRICITY": 0.00027102, "INCLINATION": 74.0224, "RA_OF_ASC_NODE": 289.1407, "ARG_OF_PERICENTER": 46.3166, "MEAN_ANOMALY": 9.6501, "EPHEMERIS_TYPE": 0, "CLASSIFICATION_TYPE": "U", "NORAD_CAT_ID": 34383, "ELEMENT_SET_NO": 999, "REV_AT_EPOCH": 89176, "BSTAR": 0.0022610415, "MEAN_MOTION_DOT": 0.00036258, "MEAN_MOTION_DDOT": 0}, "tle": {"line1": "1 34383U 93036PY  25350.88885770  .00036258  00000+0  22610-2 0  9994", "line2": "2 34383  74.0224 289.1407 0002710  46.3166   9.6501 15.09361567891764"}}, "geometry": {"type": "Point", "coordinates": [-55.61095468096761, 45.83889269624005]}}, {"type": "Feature", "properties": {"norad_id": 34387, "name": "COSMOS 2251 DEB", "group": "cosmos-2251-debris", "lat": -47.68056983708571, "lon": 40.781155454461775, "alt_km": 742.0119517680805, "timestamp": "2025-12-17T19:34:08.431879+00:00", "meta": {"OBJECT_NAME": "COSMOS 2251 DEB", "OBJECT_ID": "1993-036QC", "EPOCH": "2025-12-17T00:55:01.591968", "MEAN_MOTION": 14.43830028, "ECCENTRICITY": 0.00388046, "INCLINATION": 74.0391, "RA_OF_ASC_NODE": 203.9062, "ARG_OF_PERICENTER": 300.1123, "MEAN_ANOMALY": 212.6015, "EPHEMERIS_TYPE": 0, "CLASSIFICATION_TYPE": "U", "NORAD_CAT_ID": 34387, "ELEMENT_SET_NO": 999, "REV_AT_EPOCH": 88243, "BSTAR": 0.00026164369, "MEAN_MOTION_DOT": 8.72e-06, "MEAN_MOTION_DDOT": 0}, "tle": {"line1": "1 34387U 93036QC  25351.03821287  .00000872  00000+0  26164-3 0  9991", "line2": "2 34387  74.0391 203.9062 0038804 300.1123 212.6015 14.43830028882431"}}, "geometry": {"type": "Point", "coordinates": [40.781155454461775, -47.68056983708571]}}, {"type": "Feature", "properties": {"norad_id": 34388, "name": "COSMOS 2251 DEB", "group": "cosmos-2251-debris", "lat": -43.24216469038941, "lon": -162.02860695736217, "alt_km": 728.0101328318669, "timestamp": "2025-12-17T19:34:08.431892+00:00", "meta": {"OBJECT_NAME": "COSMOS 2251 DEB", "OBJECT_ID": "1993-036QD", "EPOCH": "2025-12-17T02:15:56.866752", "MEAN_MOTION": 14.49387466, "ECCENTRICITY": 0.00139431, "INCLINATION": 74.0386, "RA_OF_ASC_NODE": 214.9374, "ARG_OF_PERICENTER": 262.8874, "MEAN_ANOMALY": 251.2954, "EPHEMERIS_TYPE": 0, "CLASSIFICATION_TYPE": "U", "NORAD_CAT_ID": 34388, "ELEMENT_SET_NO": 999, "REV_AT_EPOCH": 88218, "BSTAR": 0.00049356712, "MEAN_MOTION_DOT": 1.862e-05, "MEAN_MOTION_DDOT": 0}, "tle": {"line1": "1 34388U 93036QD  25351.09440818  .00001862  00000+0  49357-3 0  9994", "line2": "2 34388  74.0386 214.9374 0013943 262.8874 251.2954 14.49387466882180"}}, "geometry": {"type": "Point", "coordinates": [-162.02860695736217, -43.24216469038941]}}, {"type": "Feature", "properties": {"norad_id": 34389, "name": "COSMOS 2251 DEB", "group": "cosmos-2251-debris", "lat": -13.312892463935533, "lon": 64.29153793830743, "alt_km": 776.7683564644831, "timestamp": "2025-12-17T19:34:08.431903+00:00", "meta": {"OBJECT_NAME": "COSMOS 2251 DEB", "OBJECT_ID": "1993-036QE", "EPOCH": "2025-12-17T04:26:22.925184", "MEAN_MOTION": 14.41543954, "ECCENTRICITY": 0.00291024, "INCLINATION": 74.0183, "RA_OF_ASC_NODE": 241.5716, "ARG_OF_PERICENTER": 352.7514, "MEAN_ANOMALY": 171.005, "EPHEMERIS_TYPE": 0, "CLASSIFICATION_TYPE": "U", "NORAD_CAT_ID": 34389, "ELEMENT_SET_NO": 999, "REV_AT_EPOCH": 88076, "BSTAR": 0.00030698598, "MEAN_MOTION_DOT": 9.76e-06, "MEAN_MOTION_DDOT": 0}, "tle": {"line1": "1 34389U 93036QE  25351.18498756  .00000976  00000+0  30699-3 0  9993", "line2": "2 34389  74.0183 241.5716 0029102 352.7514 171.0050 14.41543954880762"}}, "geometry": {"type": "Point", "coordinates": [64.29153793830743, -13.312892463935533]}}, {"type": "Feature", "properties": {"norad_id": 34396, "name": "COSMOS 2251 DEB", "group": "cosmos-2251-debris", "lat": -0.41606531668604674, "lon": 113.99829500369478, "alt_km": 652.7363402884221, "timestamp": "2025-12-17T19:34:08.431913+00:00", "meta": {"OBJECT_NAME": "COSMOS 2251 DEB", "OBJECT_ID": "1993-036QM", "EPOCH": "2025-12-17T08:18:48.825216", "MEAN_MOTION": 14.7454388, "ECCENTRICITY": 0.0005499, "INCLINATION": 74.0285, "RA_OF_ASC_NODE": 115.0333, "ARG_OF_PERICENTER": 154.2297, "MEAN_ANOMALY": 237.0136, "EPHEMERIS_TYPE": 0, "CLASSIFICATION_TYPE": "U", "NORAD_CAT_ID": 34396, "ELEMENT_SET_NO": 999, "REV_AT_EPOCH": 88414, "BSTAR": 0.0016298995, "MEAN_MOTION_DOT": 0.00010838, "MEAN_MOTION_DDOT": 0}, "tle": {"line1": "1 34396U 93036QM  25351.34639844  .00010838  00000+0  16299-2 0  9991", "line2": "2 34396  74.0285 115.0333 0005499 154.2297 237.0136 14.74543880884147"}}, "geometry": {"type": "Point", "coordinates": [113.99829500369478, -0.41606531668604674]}}]}